OBJECT_NAME,OBJECT_ID,EPOCH,MEAN_MOTION,ECCENTRICITY,INCLINATION,RA_OF_ASC_NODE,ARG_OF_PERICENTER,MEAN_ANOMALY,EPHEMERIS_TYPE,CLASSIFICATION_TYPE,NORAD_CAT_ID,ELEMENT_SET_NO,REV_AT_EPOCH,BSTAR,MEAN_MOTION_DOT,MEAN_MOTION_DDOT
BEIDOU-3 M28 (C50),2023-207A,2026-06-04T22:46:53.681088,1.86229823,.00036017,55.7423,62.7161,342.0321,17.9818,0,U,58654,999,1661,0,-.42E-6,0
BEIDOU-3 M26 (C48),2023-207B,2026-06-03T03:15:36.834336,1.86229917,.0003644,55.7428,62.7637,315.9700,44.0214,0,U,58655,999,1656,0,-.5E-6,0
GSAT0225 (GALILEO 29),2024-079A,2026-06-04T19:11:45.083904,1.70474236,.00018891,55.1115,101.4267,291.2198,252.0440,0,U,59598,999,1310,0,.15E-6,0
GSAT0227 (GALILEO 30),2024-079C,2026-06-04T02:21:06.922656,1.70474129,.00018215,55.1072,101.4444,42.0743,317.8998,0,U,59600,999,1314,0,.11E-6,0
GSAT0232 (GALILEO 32),2024-167A,2026-06-04T22:07:16.527648,1.70474561,.0005876,55.1882,221.6507,224.3947,136.6836,0,U,61182,999,1067,0,.42E-6,0
GSAT0226 (GALILEO 31),2024-167B,2026-06-04T21:05:21.122880,1.70474523,.00026523,55.1868,221.6590,221.6464,204.3786,0,U,61183,999,1064,0,.42E-6,0
BEIDOU-3 M25 (C47),2024-168B,2026-06-04T20:04:47.499168,1.86230297,.00030638,54.4852,302.6721,306.3392,231.2716,0,U,61186,999,1155,0,-.58E-6,0
BEIDOU-3 M27 (C49),2024-168C,2026-06-04T15:17:35.393280,1.86230382,.00017965,54.4808,302.6620,47.2296,131.6878,0,U,61187,999,902,0,-.58E-6,0
GPS BIII-7  (PRN 01),2024-242A,2026-06-04T21:01:45.812352,2.00571595,.001738,54.8548,334.6808,4.3372,355.2170,0,U,62339,999,1100,0,-.72E-6,0
QZS-6 (QZSS/PRN 200),2025-023A,2026-06-04T12:16:48.427104,1.00268510,.00025716,0.0204,28.4634,48.7616,90.3882,0,U,62876,999,482,0,-.22E-5,0
COSMOS 2584 (704K),2025-042A,2026-06-04T22:32:59.851968,2.13103948,.00058312,65.0776,73.2182,229.2014,130.7692,0,U,63130,999,978,0,-.9E-7,0
GPS BIII-8  (PRN 21),2025-116A,2026-06-04T08:47:30.944832,2.00577081,.00084526,55.2259,31.6468,337.8257,196.1658,0,U,64202,999,761,0,-.73E-6,0
COSMOS 2596 (708K),2025-206B,2026-05-29T16:25:48.887904,2.13100909,.00111512,64.6467,315.6290,314.6394,43.2361,0,U,65590,999,551,0,-.68E-6,0
GSAT0233 (GALILEO 33),2025-302A,2026-06-04T16:25:14.919744,1.70474377,.00013491,54.3286,102.4877,235.7171,167.4266,0,U,67160,999,291,0,.15E-6,0
GSAT0234 (GALILEO 34),2025-302C,2026-06-03T20:33:01.967328,1.70474390,.0003271,54.3286,102.5103,302.9496,132.1778,0,U,67162,999,295,0,.1E-6,0
GPS BIII-9  (PRN 20),2026-017A,2026-06-01T05:50:24.293472,2.00571608,.00226248,55.0787,89.3950,257.1779,102.5406,0,U,67588,999,43129,0,-.3E-6,0
GPS BIII-10 (PRN 13),2026-087A,2026-06-04T10:53:49.839648,2.00569407,.00209432,54.9640,208.2915,107.1704,256.5899,0,U,68791,999,58,0,.44E-6,0
